{
  "norad_id": 65280,
  "name": "STARLINK-35001",
  "history": [
    {
      "epoch": "2026-04-11T20:43:19.748064Z",
      "apogee_km": 550.0210616950153,
      "perigee_km": 549.0068535948149,
      "latitude_deg": -1.7797501871917498e-05,
      "longitude_deg": 4.471111614785666,
      "height_km": 552.8630899131716,
      "semi_major_axis_km": 6927.650957644914,
      "eccentricity": 7.32e-05,
      "inclination_deg": 97.6026,
      "raan_deg": 155.3802,
      "arg_perigee_deg": 124.1719,
      "mean_anomaly_deg": 235.9577,
      "mean_motion_rev_day": 15.05649086
    },
    {
      "epoch": "2026-04-13T03:01:37.897248Z",
      "apogee_km": 550.0699977339018,
      "perigee_km": 548.9558930696812,
      "latitude_deg": -4.970225501193608e-06,
      "longitude_deg": -90.1044961638371,
      "height_km": 552.9151091225511,
      "semi_major_axis_km": 6927.649945401791,
      "eccentricity": 8.041e-05,
      "inclination_deg": 97.6023,
      "raan_deg": 156.6248,
      "arg_perigee_deg": 127.3423,
      "mean_anomaly_deg": 232.7877,
      "mean_motion_rev_day": 15.05649416
    },
    {
      "epoch": "2026-04-14T14:07:01.801920Z",
      "apogee_km": 550.0695473272935,
      "perigee_km": 548.929258375384,
      "latitude_deg": 4.368435667185039e-05,
      "longitude_deg": 103.5458019746883,
      "height_km": 552.978346419644,
      "semi_major_axis_km": 6927.636402851338,
      "eccentricity": 8.23e-05,
      "inclination_deg": 97.6025,
      "raan_deg": 158.0658,
      "arg_perigee_deg": 136.6432,
      "mean_anomaly_deg": 223.486,
      "mean_motion_rev_day": 15.05653831
    },
    {
      "epoch": "2026-04-15T17:13:55.468704Z",
      "apogee_km": 550.0256817870604,
      "perigee_km": 548.9629831406601,
      "latitude_deg": 7.528976590029438e-05,
      "longitude_deg": 56.82211855935052,
      "height_km": 553.0244427046849,
      "semi_major_axis_km": 6927.63133246386,
      "eccentricity": 7.67e-05,
      "inclination_deg": 97.6018,
      "raan_deg": 159.1793,
      "arg_perigee_deg": 151.146,
      "mean_anomaly_deg": 208.981,
      "mean_motion_rev_day": 15.05655484
    },
    {
      "epoch": "2026-04-16T13:58:01.737120Z",
      "apogee_km": 550.1857183779148,
      "perigee_km": 548.8403687394548,
      "latitude_deg": 3.5898988887520116e-05,
      "longitude_deg": 105.7958477985921,
      "height_km": 553.1664832651367,
      "semi_major_axis_km": 6927.650043558684,
      "eccentricity": 9.71e-05,
      "inclination_deg": 97.6028,
      "raan_deg": 160.0307,
      "arg_perigee_deg": 151.0944,
      "mean_anomaly_deg": 209.0337,
      "mean_motion_rev_day": 15.05649384
    },
    {
      "epoch": "2026-04-17T17:04:55.917120Z",
      "apogee_km": 550.1312498788548,
      "perigee_km": 548.8723593552795,
      "latitude_deg": 3.325682633689862e-05,
      "longitude_deg": 59.07092422896262,
      "height_km": 553.1286824755146,
      "semi_major_axis_km": 6927.638804617067,
      "eccentricity": 9.086e-05,
      "inclination_deg": 97.6031,
      "raan_deg": 161.1451,
      "arg_perigee_deg": 153.279,
      "mean_anomaly_deg": 206.8484,
      "mean_motion_rev_day": 15.05653048
    },
    {
      "epoch": "2026-04-18T13:49:01.649856Z",
      "apogee_km": 550.1580496242068,
      "perigee_km": 548.7933099262909,
      "latitude_deg": 7.298047085319188e-06,
      "longitude_deg": 108.04718846152883,
      "height_km": 553.1686430620449,
      "semi_major_axis_km": 6927.612679775249,
      "eccentricity": 9.85e-05,
      "inclination_deg": 97.6032,
      "raan_deg": 161.9968,
      "arg_perigee_deg": 157.0262,
      "mean_anomaly_deg": 203.1009,
      "mean_motion_rev_day": 15.05661565
    },
    {
      "epoch": "2026-04-19T16:55:55.669152Z",
      "apogee_km": 550.469754918,
      "perigee_km": 548.5106219491117,
      "latitude_deg": -5.970815200160503e-05,
      "longitude_deg": 61.32144236114328,
      "height_km": 553.4391754024911,
      "semi_major_axis_km": 6927.627188433556,
      "eccentricity": 0.0001414,
      "inclination_deg": 97.5994,
      "raan_deg": 163.1097,
      "arg_perigee_deg": 154.5415,
      "mean_anomaly_deg": 205.5881,
      "mean_motion_rev_day": 15.05656835
    },
    {
      "epoch": "2026-04-20T02:30:07.758144Z",
      "apogee_km": 550.3020579468439,
      "perigee_km": 548.6955392051532,
      "latitude_deg": -2.4614766752748626e-05,
      "longitude_deg": -82.22846064606628,
      "height_km": 553.282141238758,
      "semi_major_axis_km": 6927.635798575998,
      "eccentricity": 0.00011595,
      "inclination_deg": 97.5989,
      "raan_deg": 163.5032,
      "arg_perigee_deg": 153.4726,
      "mean_anomaly_deg": 206.656,
      "mean_motion_rev_day": 15.05654028
    },
    {
      "epoch": "2026-04-21T15:11:13.640064Z",
      "apogee_km": 550.3254126601778,
      "perigee_km": 548.6489276110051,
      "latitude_deg": 3.476092195344778e-05,
      "longitude_deg": 87.49502177441101,
      "height_km": 553.3823162221428,
      "semi_major_axis_km": 6927.624170135591,
      "eccentricity": 0.000121,
      "inclination_deg": 97.5918,
      "raan_deg": 165.0078,
      "arg_perigee_deg": 171.8319,
      "mean_anomaly_deg": 188.2928,
      "mean_motion_rev_day": 15.05657819
    },
    {
      "epoch": "2026-04-22T02:21:07.759008Z",
      "apogee_km": 550.3601396308477,
      "perigee_km": 548.627954763806,
      "latitude_deg": 1.8600791011273584e-05,
      "longitude_deg": -79.9808044968094,
      "height_km": 553.3538900724734,
      "semi_major_axis_km": 6927.631047197327,
      "eccentricity": 0.00012502,
      "inclination_deg": 97.5916,
      "raan_deg": 165.466,
      "arg_perigee_deg": 156.6123,
      "mean_anomaly_deg": 203.5161,
      "mean_motion_rev_day": 15.05655577
    },
    {
      "epoch": "2026-04-23T02:16:37.988832Z",
      "apogee_km": 550.3350977862019,
      "perigee_km": 548.6854864130073,
      "latitude_deg": 2.633877097125307e-05,
      "longitude_deg": -78.85753294056019,
      "height_km": 553.3104333967259,
      "semi_major_axis_km": 6927.647292099604,
      "eccentricity": 0.00011906,
      "inclination_deg": 97.5913,
      "raan_deg": 166.4478,
      "arg_perigee_deg": 153.062,
      "mean_anomaly_deg": 207.0669,
      "mean_motion_rev_day": 15.05650281
    },
    {
      "epoch": "2026-04-24T16:33:25.873920Z",
      "apogee_km": 550.4707182109405,
      "perigee_km": 548.5115849696713,
      "latitude_deg": 7.391161233916854e-05,
      "longitude_deg": 66.93933491089959,
      "height_km": 553.468091815933,
      "semi_major_axis_km": 6927.628151590306,
      "eccentricity": 0.0001414,
      "inclination_deg": 97.5806,
      "raan_deg": 168.0163,
      "arg_perigee_deg": 158.5509,
      "mean_anomaly_deg": 201.5778,
      "mean_motion_rev_day": 15.05656521
    },
    {
      "epoch": "2026-04-25T16:28:55.996608Z",
      "apogee_km": 550.1819728340515,
      "perigee_km": 548.8130722523974,
      "latitude_deg": -3.379999459678635e-05,
      "longitude_deg": 68.05587140756566,
      "height_km": 553.0443529890852,
      "semi_major_axis_km": 6927.634522543224,
      "eccentricity": 9.88e-05,
      "inclination_deg": 97.573,
      "raan_deg": 168.9909,
      "arg_perigee_deg": 134.7384,
      "mean_anomaly_deg": 225.3923,
      "mean_motion_rev_day": 15.05654444
    },
    {
      "epoch": "2026-04-26T16:24:26.093376Z",
      "apogee_km": 550.4060025505978,
      "perigee_km": 548.5886069670878,
      "latitude_deg": 4.385931673353163e-05,
      "longitude_deg": 69.17649236514299,
      "height_km": 553.2586857674319,
      "semi_major_axis_km": 6927.6343047588425,
      "eccentricity": 0.00013117,
      "inclination_deg": 97.5676,
      "raan_deg": 169.9695,
      "arg_perigee_deg": 140.0239,
      "mean_anomaly_deg": 220.1085,
      "mean_motion_rev_day": 15.05654515
    },
    {
      "epoch": "2026-04-27T16:19:56.074368Z",
      "apogee_km": 550.1566302994643,
      "perigee_km": 548.826525612496,
      "latitude_deg": -5.528839753478816e-05,
      "longitude_deg": 70.29602077691754,
      "height_km": 553.1414811351129,
      "semi_major_axis_km": 6927.628577955979,
      "eccentricity": 9.6e-05,
      "inclination_deg": 97.5636,
      "raan_deg": 170.9465,
      "arg_perigee_deg": 151.4455,
      "mean_anomaly_deg": 208.6824,
      "mean_motion_rev_day": 15.05656382
    },
    {
      "epoch": "2026-04-28T17:51:08.112096Z",
      "apogee_km": 550.564998950993,
      "perigee_km": 548.4188195149118,
      "latitude_deg": 3.745971829125377e-05,
      "longitude_deg": 47.490782533336564,
      "height_km": 553.1786836857892,
      "semi_major_axis_km": 6927.628909232952,
      "eccentricity": 0.0001549,
      "inclination_deg": 97.5584,
      "raan_deg": 171.9895,
      "arg_perigee_deg": 125.4359,
      "mean_anomaly_deg": 234.7013,
      "mean_motion_rev_day": 15.05656274
    },
    {
      "epoch": "2026-04-29T17:46:38.085312Z",
      "apogee_km": 550.5674992993763,
      "perigee_km": 548.3991541371142,
      "latitude_deg": 6.185647586965561e-05,
      "longitude_deg": 48.608926757497834,
      "height_km": 553.412736772382,
      "semi_major_axis_km": 6927.620326718245,
      "eccentricity": 0.0001565,
      "inclination_deg": 97.5549,
      "raan_deg": 172.9651,
      "arg_perigee_deg": 142.8486,
      "mean_anomaly_deg": 217.285,
      "mean_motion_rev_day": 15.05659072
    },
    {
      "epoch": "2026-04-30T14:30:44.072928Z",
      "apogee_km": 550.6335439365657,
      "perigee_km": 548.3357903820024,
      "latitude_deg": 7.234713276279174e-05,
      "longitude_deg": 97.58032070809242,
      "height_km": 553.4087140231294,
      "semi_major_axis_km": 6927.621667159284,
      "eccentricity": 0.00016584,
      "inclination_deg": 97.5538,
      "raan_deg": 173.813,
      "arg_perigee_deg": 138.3899,
      "mean_anomaly_deg": 221.7455,
      "mean_motion_rev_day": 15.05658635
    }
  ]
}